[
    {
        "Altitude(m)": 711390.4536745452,
        "Argument of Periapsis(deg)": 0.005695060593313534,
        "Eccentricity": 0.0,
        "Inclination(deg)": 45.0,
        "Latitude(deg)": -29.195142525905197,
        "Longitude(deg)": -139.13530321368785,
        "Mean Anomaly(deg)": -43.32429167625956,
        "RAAN(deg)": 354.9946240292709,
        "Satellite Name": "Constellation 1 1581",
        "Satellite Number": 1581,
        "Semi-Major Axis(m)": 7083131.272910544,
        "Time(s)": 95
    },
    {
        "Altitude(m)": 711376.6886966458,
        "Argument of Periapsis(deg)": 0.00575500859955894,
        "Eccentricity": 0.0,
        "Inclination(deg)": 45.0,
        "Latitude(deg)": -29.159347428611323,
        "Longitude(deg)": -139.08337800794692,
        "Mean Anomaly(deg)": -43.263590536009566,
        "RAAN(deg)": 354.9945674401053,
        "Satellite Name": "Constellation 1 1581",
        "Satellite Number": 1581,
        "Semi-Major Axis(m)": 7083131.272910544,
        "Time(s)": 96
    },
    {
        "Altitude(m)": 711362.9207852271,
        "Argument of Periapsis(deg)": 0.005814956605804345,
        "Eccentricity": 0.0,
        "Inclination(deg)": 45.0,
        "Latitude(deg)": -29.123528646255444,
        "Longitude(deg)": -139.03149134844955,
        "Mean Anomaly(deg)": -43.20288939575973,
        "RAAN(deg)": 354.9945108509398,
        "Satellite Name": "Constellation 1 1581",
        "Satellite Number": 1581,
        "Semi-Major Axis(m)": 7083131.272910544,
        "Time(s)": 97
    },
    {
        "Altitude(m)": 711349.1499883456,
        "Argument of Periapsis(deg)": 0.00587490461204975,
        "Eccentricity": 0.0,
        "Inclination(deg)": 45.0,
        "Latitude(deg)": -29.087686228937564,
        "Longitude(deg)": -138.97964334494478,
        "Mean Anomaly(deg)": -43.1421882555099,
        "RAAN(deg)": 354.9944542617742,
        "Satellite Name": "Constellation 1 1581",
        "Satellite Number": 1581,
        "Semi-Major Axis(m)": 7083131.272910544,
        "Time(s)": 98
    },
    {
        "Altitude(m)": 711335.3763540734,
        "Argument of Periapsis(deg)": 0.005934852618295156,
        "Eccentricity": 0.0,
        "Inclination(deg)": 45.0,
        "Latitude(deg)": -29.051820226687298,
        "Longitude(deg)": -138.9278339390417,
        "Mean Anomaly(deg)": -43.08148711525991,
        "RAAN(deg)": 354.9943976726086,
        "Satellite Name": "Constellation 1 1581",
        "Satellite Number": 1581,
        "Semi-Major Axis(m)": 7083131.272910544,
        "Time(s)": 99
    },
    {
        "Altitude(m)": 711321.599930455,
        "Argument of Periapsis(deg)": 0.005994800624540561,
        "Eccentricity": 0.0,
        "Inclination(deg)": 45.0,
        "Latitude(deg)": -29.01593068946392,
        "Longitude(deg)": -138.87606307230766,
        "Mean Anomaly(deg)": -43.02078597501002,
        "RAAN(deg)": 354.99434108344303,
        "Satellite Name": "Constellation 1 1581",
        "Satellite Number": 1581,
        "Semi-Major Axis(m)": 7083131.272910544,
        "Time(s)": 100
    },
    {
        "Altitude(m)": 711307.8207655682,
        "Argument of Periapsis(deg)": 0.006054748630785968,
        "Eccentricity": 0.0,
        "Inclination(deg)": 45.0,
        "Latitude(deg)": -28.980017667155845,
        "Longitude(deg)": -138.8243306862682,
        "Mean Anomaly(deg)": -42.96008483476019,
        "RAAN(deg)": 354.99428449427745,
        "Satellite Name": "Constellation 1 1581",
        "Satellite Number": 1581,
        "Semi-Major Axis(m)": 7083131.272910544,
        "Time(s)": 101
    },
    {
        "Altitude(m)": 711294.0389074603,
        "Argument of Periapsis(deg)": 0.006114696637031373,
        "Eccentricity": 0.0,
        "Inclination(deg)": 45.0,
        "Latitude(deg)": -28.94408120958108,
        "Longitude(deg)": -138.772636722408,
        "Mean Anomaly(deg)": -42.899383694510256,
        "RAAN(deg)": 354.9942279051119,
        "Satellite Name": "Constellation 1 1581",
        "Satellite Number": 1581,
        "Semi-Major Axis(m)": 7083131.272910544,
        "Time(s)": 102
    },
    {
        "Altitude(m)": 711280.254404195,
        "Argument of Periapsis(deg)": 0.006174644643276778,
        "Eccentricity": 0.0,
        "Inclination(deg)": 45.0,
        "Latitude(deg)": -28.908121366487332,
        "Longitude(deg)": -138.72098112217174,
        "Mean Anomaly(deg)": -42.838682554260366,
        "RAAN(deg)": 354.99417131594635,
        "Satellite Name": "Constellation 1 1581",
        "Satellite Number": 1581,
        "Semi-Major Axis(m)": 7083131.272910544,
        "Time(s)": 103
    },
    {
        "Altitude(m)": 711266.467303837,
        "Argument of Periapsis(deg)": 0.006234592649522184,
        "Eccentricity": 0.0,
        "Inclination(deg)": 45.0,
        "Latitude(deg)": -28.87213818755141,
        "Longitude(deg)": -138.66936399506108,
        "Mean Anomaly(deg)": -42.777981414010476,
        "RAAN(deg)": 354.9941147267807,
        "Satellite Name": "Constellation 1 1581",
        "Satellite Number": 1581,
        "Semi-Major Axis(m)": 7083131.272910544,
        "Time(s)": 104
    },
    {
        "Altitude(m)": 711252.6776544402,
        "Argument of Periapsis(deg)": 0.00629454065576759,
        "Eccentricity": 0.0,
        "Inclination(deg)": 45.0,
        "Latitude(deg)": -28.83613172238068,
        "Longitude(deg)": -138.61778494624718,
        "Mean Anomaly(deg)": -42.717280273760544,
        "RAAN(deg)": 354.9940581376152,
        "Satellite Name": "Constellation 1 1581",
        "Satellite Number": 1581,
        "Semi-Major Axis(m)": 7083131.272910544,
        "Time(s)": 105
    },
    {
        "Altitude(m)": 711238.8855040646,
        "Argument of Periapsis(deg)": 0.006354488662012995,
        "Eccentricity": 0.0,
        "Inclination(deg)": 45.0,
        "Latitude(deg)": -28.800102020511503,
        "Longitude(deg)": -138.56624408515415,
        "Mean Anomaly(deg)": -42.656579133510604,
        "RAAN(deg)": 354.9940015484496,
        "Satellite Name": "Constellation 1 1581",
        "Satellite Number": 1581,
        "Semi-Major Axis(m)": 7083131.272910544,
        "Time(s)": 106
    },
    {
        "Altitude(m)": 711225.0909007669,
        "Argument of Periapsis(deg)": 0.006414436668258401,
        "Eccentricity": 0.0,
        "Inclination(deg)": 45.0,
        "Latitude(deg)": -28.764049131410257,
        "Longitude(deg)": -138.51474135307097,
        "Mean Anomaly(deg)": -42.59587799326082,
        "RAAN(deg)": 354.9939449592841,
        "Satellite Name": "Constellation 1 1581",
        "Satellite Number": 1581,
        "Semi-Major Axis(m)": 7083131.272910544,
        "Time(s)": 107
    },
    {
        "Altitude(m)": 711211.2938925973,
        "Argument of Periapsis(deg)": 0.0064743846745038075,
        "Eccentricity": 0.0,
        "Inclination(deg)": 45.0,
        "Latitude(deg)": -28.72797310447291,
        "Longitude(deg)": -138.46327669124867,
        "Mean Anomaly(deg)": -42.53517685301088,
        "RAAN(deg)": 354.9938883701185,
        "Satellite Name": "Constellation 1 1581",
        "Satellite Number": 1581,
        "Semi-Major Axis(m)": 7083131.272910544,
        "Time(s)": 108
    },
    {
        "Altitude(m)": 711197.4945276158,
        "Argument of Periapsis(deg)": 0.0065343326807492125,
        "Eccentricity": 0.0,
        "Inclination(deg)": 45.0,
        "Latitude(deg)": -28.69187398902553,
        "Longitude(deg)": -138.4118500409018,
        "Mean Anomaly(deg)": -42.47447571276095,
        "RAAN(deg)": 354.993831780953,
        "Satellite Name": "Constellation 1 1581",
        "Satellite Number": 1581,
        "Semi-Major Axis(m)": 7083131.272910544,
        "Time(s)": 109
    },
    {
        "Altitude(m)": 711183.6928538695,
        "Argument of Periapsis(deg)": 0.0065942806869946176,
        "Eccentricity": 0.0,
        "Inclination(deg)": 45.0,
        "Latitude(deg)": -28.655751834324192,
        "Longitude(deg)": -138.36046134320856,
        "Mean Anomaly(deg)": -42.41377457251111,
        "RAAN(deg)": 354.99377519178734,
        "Satellite Name": "Constellation 1 1581",
        "Satellite Number": 1581,
        "Semi-Major Axis(m)": 7083131.272910544,
        "Time(s)": 110
    },
    {
        "Altitude(m)": 711169.8889194062,
        "Argument of Periapsis(deg)": 0.006654228693240024,
        "Eccentricity": 0.0,
        "Inclination(deg)": 45.0,
        "Latitude(deg)": -28.619606689554406,
        "Longitude(deg)": -138.30911070740783,
        "Mean Anomaly(deg)": -42.35307343226117,
        "RAAN(deg)": 354.99371860262175,
        "Satellite Name": "Constellation 1 1581",
        "Satellite Number": 1581,
        "Semi-Major Axis(m)": 7083131.272910544,
        "Time(s)": 111
    },
    {
        "Altitude(m)": 711156.0827722771,
        "Argument of Periapsis(deg)": 0.006714176699485429,
        "Eccentricity": 0.0,
        "Inclination(deg)": 45.0,
        "Latitude(deg)": -28.583438603832743,
        "Longitude(deg)": -138.25779773841253,
        "Mean Anomaly(deg)": -42.29237229201124,
        "RAAN(deg)": 354.99366201345623,
        "Satellite Name": "Constellation 1 1581",
        "Satellite Number": 1581,
        "Semi-Major Axis(m)": 7083131.272910544,
        "Time(s)": 112
    },
    {
        "Altitude(m)": 711142.2744605219,
        "Argument of Periapsis(deg)": 0.006774124705730835,
        "Eccentricity": 0.0,
        "Inclination(deg)": 45.0,
        "Latitude(deg)": -28.547247626205028,
        "Longitude(deg)": -138.20652254539186,
        "Mean Anomaly(deg)": -42.2316711517613,
        "RAAN(deg)": 354.99360542429065,
        "Satellite Name": "Constellation 1 1581",
        "Satellite Number": 1581,
        "Semi-Major Axis(m)": 7083131.272910544,
        "Time(s)": 113
    }
]